{"type":"FeatureCollection","features":[{"type":"Feature","properties":{"name":"17th St Canal","osm_id":28306271,"osm_type":"way","label":"17th Street Canal","kind":"waterbody","source":"osm"},"geometry":{"type":"Polygon","coordinates":[[[-90.12555,29.97589],[-90.12542,29.97448],[-90.12529,29.97445],[-90.12522,29.97443],[-90.12531,29.97522],[-90.12537,29.97567],[-90.12535,29.97608],[-90.12523,29.97601],[-90.12507,29.97596],[-90.12496,29.97598],[-90.12504,29.97606],[-90.12515,29.97619],[-90.12519,29.97641],[-90.12519,29.97678],[-90.12518,29.97706],[-90.12513,29.97757],[-90.12507,29.9784],[-90.12496,29.97879],[-90.12485,29.97914],[-90.12482,29.97931],[-90.12478,29.97953],[-90.12468,29.98129],[-90.12428,29.98587],[-90.12417,29.98609],[-90.1238,29.98657],[-90.12382,29.98668],[-90.12441,29.98672],[-90.12486,29.98675],[-90.12489,29.98665],[-90.12458,29.98616],[-90.12462,29.9858],[-90.12481,29.98367],[-90.12496,29.98175],[-90.1251,29.9801],[-90.12519,29.97921],[-90.12532,29.97865],[-90.12543,29.97769],[-90.12555,29.97628],[-90.12555,29.97589]]]}},{"type":"Feature","properties":{"name":"Orleans Ave Canal","osm_id":365269822,"osm_type":"way","label":"Orleans Avenue Canal","kind":"waterbody","source":"osm"},"geometry":{"type":"Polygon","coordinates":[[[-90.10131,29.99445],[-90.10106,29.99444],[-90.10087,29.99443],[-90.10089,29.99506],[-90.10072,29.99636],[-90.10033,29.99969],[-90.10013,30.00152],[-90.09984,30.00412],[-90.09947,30.00715],[-90.09879,30.01297],[-90.09839,30.0165],[-90.09815,30.01872],[-90.09813,30.01894],[-90.09777,30.02092],[-90.09797,30.02146],[-90.09816,30.02196],[-90.09809,30.0222],[-90.09794,30.02263],[-90.09814,30.023],[-90.0985,30.02346],[-90.09876,30.02391],[-90.09886,30.02423],[-90.09869,30.02489],[-90.09814,30.02515],[-90.09765,30.02552],[-90.09713,30.02596],[-90.09698,30.02598],[-90.09689,30.02612],[-90.09682,30.02616],[-90.09661,30.02669],[-90.0966,30.0268],[-90.09665,30.0268],[-90.09665,30.02693],[-90.0968,30.02701],[-90.09681,30.02707],[-90.09682,30.02707],[-90.09682,30.02722],[-90.09677,30.02727],[-90.09671,30.02727],[-90.09669,30.02732],[-90.09671,30.02737],[-90.0968,30.02796],[-90.09737,30.02787],[-90.09736,30.02781],[-90.09736,30.02779],[-90.09734,30.02778],[-90.09733,30.02772],[-90.09738,30.02763],[-90.0974,30.02757],[-90.09741,30.02752],[-90.09736,30.02752],[-90.09729,30.02751],[-90.09729,30.0274],[-90.09729,30.02738],[-90.09729,30.02738],[-90.09729,30.02735],[-90.09695,30.02734],[-90.09695,30.02706],[-90.09728,30.02706],[-90.09728,30.02704],[-90.09728,30.02704],[-90.09728,30.027],[-90.09728,30.027],[-90.09728,30.02698],[-90.0973,30.02698],[-90.09731,30.02694],[-90.09729,30.02693],[-90.09729,30.02691],[-90.09729,30.0269],[-90.09729,30.02688],[-90.09729,30.02687],[-90.09729,30.02685],[-90.0973,30.02684],[-90.09731,30.02683],[-90.09731,30.02683],[-90.09731,30.02681],[-90.09731,30.02679],[-90.09732,30.02678],[-90.09733,30.02676],[-90.09734,30.02675],[-90.09733,30.02673],[-90.09734,30.02671],[-90.09735,30.02669],[-90.09736,30.02668],[-90.09736,30.02666],[-90.09736,30.02664],[-90.09737,30.02662],[-90.09739,30.0266],[-90.09741,30.02659],[-90.09742,30.02658],[-90.09744,30.02658],[-90.09747,30.02658],[-90.09749,30.02651],[-90.09751,30.02644],[-90.09755,30.02637],[-90.09755,30.02635],[-90.09756,30.02628],[-90.09758,30.02622],[-90.09762,30.02611],[-90.09764,30.02608],[-90.09767,30.02604],[-90.09783,30.02591],[-90.09837,30.02552],[-90.09927,30.02494],[-90.09946,30.02473],[-90.09949,30.02442],[-90.09946,30.02397],[-90.09928,30.02361],[-90.09902,30.02317],[-90.09863,30.02274],[-90.09867,30.02239],[-90.09866,30.02202],[-90.09859,30.02161],[-90.09825,30.02089],[-90.09856,30.01897],[-90.09858,30.01875],[-90.09859,30.0187],[-90.09876,30.01721],[-90.09913,30.01416],[-90.09961,30.01001],[-90.10029,30.00417],[-90.10028,30.00409],[-90.10029,30.00395],[-90.10032,30.00388],[-90.10085,29.999],[-90.10125,29.99535],[-90.10131,29.99445]]]}},{"type":"Feature","properties":{"name":"London Ave Canal","osm_id":987084129,"osm_type":"way","label":"London Avenue Canal","kind":"waterbody","source":"osm"},"geometry":{"type":"Polygon","coordinates":[[[-90.07444,30.02795],[-90.07436,30.02772],[-90.07412,30.02753],[-90.07405,30.02754],[-90.0739,30.02758],[-90.07375,30.02765],[-90.07371,30.02764],[-90.07364,30.02747],[-90.07363,30.02743],[-90.07366,30.02739],[-90.07372,30.02733],[-90.07375,30.02732],[-90.07377,30.02733],[-90.0738,30.0273],[-90.07381,30.02728],[-90.07368,30.02716],[-90.07348,30.02702],[-90.0731,30.02681],[-90.07264,30.02669],[-90.07233,30.02642],[-90.07183,30.02486],[-90.07163,30.02452],[-90.07122,30.0239],[-90.07102,30.02349],[-90.0709,30.02309],[-90.07085,30.02272],[-90.07081,30.02209],[-90.07074,30.02155],[-90.07076,30.02118],[-90.07057,30.01835],[-90.07043,30.01708],[-90.0705,30.01637],[-90.07033,30.01536],[-90.07006,30.01203],[-90.06988,30.0099],[-90.06974,30.00775],[-90.06966,30.00737],[-90.06936,30.00354],[-90.06906,29.99974],[-90.06889,29.99658],[-90.06878,29.99651],[-90.06857,29.99427],[-90.06842,29.99384],[-90.06831,29.99159],[-90.06816,29.98954],[-90.06813,29.98924],[-90.06814,29.98921],[-90.06811,29.98894],[-90.06821,29.98883],[-90.06817,29.9885],[-90.06814,29.9885],[-90.06807,29.9885],[-90.06799,29.9885],[-90.06797,29.9885],[-90.0679,29.98849],[-90.06788,29.9885],[-90.06782,29.98853],[-90.06777,29.98853],[-90.06775,29.98857],[-90.06772,29.98861],[-90.06766,29.98865],[-90.06778,29.98883],[-90.0678,29.98899],[-90.06788,29.98926],[-90.06807,29.99156],[-90.06827,29.99421],[-90.06854,29.99697],[-90.06861,29.9977],[-90.0688,29.9999],[-90.06889,30.00091],[-90.06917,30.00436],[-90.06939,30.00739],[-90.06942,30.00806],[-90.0697,30.01162],[-90.06978,30.01209],[-90.06982,30.01284],[-90.06992,30.01506],[-90.07004,30.01592],[-90.06997,30.0161],[-90.06993,30.01611],[-90.06994,30.01617],[-90.07016,30.01618],[-90.07016,30.0163],[-90.07016,30.01646],[-90.07011,30.01659],[-90.07011,30.01666],[-90.07038,30.02054],[-90.07046,30.02122],[-90.07033,30.02153],[-90.07049,30.02324],[-90.07056,30.02361],[-90.07049,30.02376],[-90.07057,30.02399],[-90.07076,30.02438],[-90.07092,30.02464],[-90.07096,30.02471],[-90.07116,30.02503],[-90.07127,30.02538],[-90.07131,30.02538],[-90.07134,30.0254],[-90.07134,30.02542],[-90.07136,30.02541],[-90.07144,30.02564],[-90.0714,30.02565],[-90.07153,30.02605],[-90.07156,30.02609],[-90.0716,30.02612],[-90.07161,30.02616],[-90.07161,30.02618],[-90.07159,30.0262],[-90.07155,30.02621],[-90.07172,30.02673],[-90.07191,30.02696],[-90.07192,30.02701],[-90.07185,30.02704],[-90.07189,30.02709],[-90.07221,30.02727],[-90.07229,30.02733],[-90.07227,30.02745],[-90.07224,30.02747],[-90.07222,30.02748],[-90.07226,30.0275],[-90.0723,30.02752],[-90.07255,30.02765],[-90.07261,30.02777],[-90.07264,30.02776],[-90.07267,30.02782],[-90.07293,30.02773],[-90.07321,30.02763],[-90.07325,30.02771],[-90.07335,30.02791],[-90.07308,30.028],[-90.07276,30.02811],[-90.07281,30.02823],[-90.07283,30.02829],[-90.07278,30.0283],[-90.07296,30.02872],[-90.07307,30.02892],[-90.07319,30.02908],[-90.07325,30.02917],[-90.07343,30.02966],[-90.07344,30.02975],[-90.07351,30.0298],[-90.07361,30.03011],[-90.07369,30.03025],[-90.07385,30.03072],[-90.07387,30.03071],[-90.07426,30.0306],[-90.07427,30.0306],[-90.07431,30.03032],[-90.07389,30.02924],[-90.07376,30.02902],[-90.07381,30.02883],[-90.07405,30.02856],[-90.07431,30.02835],[-90.07443,30.02815],[-90.07444,30.02795]]]}},{"type":"Feature","properties":{"name":"IHNC","osm_id":163762069,"osm_type":"way","label":"Inner Harbor Navigation Canal","kind":"centerline","source":"osm"},"geometry":{"type":"LineString","coordinates":[[-90.03758,30.04123],[-90.02577,30.00443],[-90.02026,29.98673]]}},{"type":"Feature","properties":{"name":"IHNC","osm_id":164030719,"osm_type":"way","label":"Inner Harbor Navigation Canal","kind":"centerline","source":"osm"},"geometry":{"type":"LineString","coordinates":[[-90.02675,29.96617],[-90.02026,29.98673]]}},{"type":"Feature","properties":{"name":"IHNC","osm_id":163762070,"osm_type":"way","label":"Inner Harbor Navigation Canal","kind":"centerline","source":"osm"},"geometry":{"type":"LineString","coordinates":[[-90.02858,29.953],[-90.02777,29.95599],[-90.02777,29.95762],[-90.02843,29.95924],[-90.02863,29.96015],[-90.02851,29.961],[-90.02735,29.96438]]}},{"type":"Feature","properties":{"name":"IHNC","osm_id":163762068,"osm_type":"way","kind":"centerline","source":"osm"},"geometry":{"type":"LineString","coordinates":[[-90.06107,29.84524],[-90.06096,29.8428],[-90.06139,29.84042],[-90.06229,29.83826],[-90.06405,29.83605],[-90.06722,29.83296],[-90.06836,29.83111],[-90.06879,29.82984],[-90.06903,29.82837]]}},{"type":"Feature","properties":{"name":"IHNC","osm_id":164030720,"osm_type":"way","kind":"centerline","source":"osm"},"geometry":{"type":"LineString","coordinates":[[-90.02735,29.96438],[-90.02675,29.96617]]}},{"type":"Feature","properties":{"name":"17th St Canal","kind":"centerline","source":"digitized"},"geometry":{"type":"LineString","coordinates":[[-90.1224,30.0279],[-90.1223,30.0245],[-90.1222,30.021],[-90.1221,30.0175],[-90.122,30.014],[-90.1219,30.0105],[-90.1218,30.007],[-90.1217,30.0035],[-90.1216,30.0],[-90.12155,29.9965],[-90.1215,29.993],[-90.12145,29.9895],[-90.1214,29.986],[-90.12135,29.9825],[-90.1213,29.9795],[-90.12125,29.977]]}},{"type":"Feature","properties":{"name":"Orleans Ave Canal","kind":"centerline","source":"digitized"},"geometry":{"type":"LineString","coordinates":[[-90.0979,30.0276],[-90.0982,30.024],[-90.09855,30.02],[-90.099,30.015],[-90.09945,30.01],[-90.0999,30.005],[-90.1004,30.0],[-90.1009,29.995],[-90.1012,29.99],[-90.1014,29.986],[-90.1015,29.9825]]}},{"type":"Feature","properties":{"name":"London Ave Canal","kind":"centerline","source":"digitized"},"geometry":{"type":"LineString","coordinates":[[-90.0712,30.0275],[-90.0708,30.024],[-90.0705,30.02],[-90.0701,30.015],[-90.0697,30.01],[-90.0693,30.005],[-90.0689,30.0],[-90.0685,29.995],[-90.0682,29.99],[-90.068,29.986],[-90.0679,29.9835]]}},{"type":"Feature","properties":{"name":"IHNC","kind":"centerline","source":"digitized"},"geometry":{"type":"LineString","coordinates":[[-90.0273,30.027],[-90.0271,30.018],[-90.0269,30.008],[-90.0267,29.998],[-90.0265,29.988],[-90.0268,29.978],[-90.0272,29.97],[-90.0276,29.962],[-90.0278,29.956],[-90.0274,29.948]]}},{"type":"Feature","properties":{"name":"GIWW","kind":"centerline","source":"digitized"},"geometry":{"type":"LineString","coordinates":[[-90.0265,29.9808],[-90.01,29.9815],[-89.99,29.983],[-89.97,29.986],[-89.95,29.991],[-89.935,29.997],[-89.92,30.004],[-89.9,30.014]]}},{"type":"Feature","properties":{"name":"MR-GO","kind":"centerline","source":"digitized"},"geometry":{"type":"LineString","coordinates":[[-90.0203,29.9867],[-90.008,29.992],[-89.99,29.9965],[-89.97,29.9995],[-89.95,30.0025],[-89.93,30.006],[-89.91,30.011]]}}]}